{
  "norad_id": 68663,
  "name": "STARLINK-37222",
  "history": [
    {
      "epoch": "2026-04-22T14:42:36.332064Z",
      "apogee_km": 344.7878079842458,
      "perigee_km": 343.3264029857137,
      "latitude_deg": -6.937653276903272e-05,
      "longitude_deg": -87.66607130173938,
      "height_km": 346.9831019073705,
      "semi_major_axis_km": 6722.194105484979,
      "eccentricity": 0.0001087,
      "inclination_deg": 97.2839,
      "raan_deg": 343.6573,
      "arg_perigee_deg": 70.767,
      "mean_anomaly_deg": 289.3712,
      "mean_motion_rev_day": 15.75201762
    }
  ]
}