STARLINK-37222          
1 68663U 26077B   26112.61292051  .00110842  00000+0  73403-3 0  9994
2 68663  97.2839 343.6573 0001087  70.7670 289.3712 15.75201762  1822
